SL-14 R/B               
1 19574U 88093B   25042.56248095  .00000924  00000+0  10501-3 0  9990
2 19574  82.5287  49.0306 0019266 250.6971 234.5325 14.85102422942970
SL-16 R/B               
1 19650U 88102B   25042.57726630 -.00000176  00000+0 -64606-4 0  9990
2 19650  70.9972 254.3854 0016497 249.3217 110.6138 14.16071936871524
INTERCOSMOS 24          
1 20261U 89080A   25042.32281511  .00000772  00000+0  21904-3 0  9996
2 20261  82.6105 358.8623 1192340 120.4362 251.9986 12.58719578617544
SL-14 R/B               
1 20262U 89080C   25042.58363538  .00000725  00000+0  21627-3 0  9995
2 20262  82.5885  64.3137 1231460 358.6612   1.1270 12.50160985611277
DELTA 1 R/B             
1 20323U 89089B   25042.61029272  .00000866  00000+0  22536-3 0  9996
2 20323  97.1197 306.3283 0068001 277.7932  81.5550 14.50203907839042
ARIANE 40 R/B           
1 20443U 90005H   25042.60018784  .00000573  00000+0  19766-3 0  9990
2 20443  98.3630 108.7384 0009132 303.8296  56.2022 14.39473206836532
DELTA 2 R/B(1)          
1 20453U 90008B   25042.49905148  .00027406  00000+0  74217-3 0  9996
2 20453  35.6150 153.4035 0157702 321.4257  37.5290 15.25089747865871
COSMOS 2058             
1 20465U 90010A   25042.52779151  .00005235  00000+0  34425-3 0  9992
2 20465  82.4813  71.2854 0011394 195.1686 164.9202 15.07342878883239
SL-14 R/B               
1 20466U 90010B   25042.63659736  .00000742  00000+0  87973-4 0  9996
2 20466  82.5007 274.5096 0020698 144.9751 215.2830 14.83053183870519
SL-14 R/B               
1 20511U 90018B   25042.55011104  .00000833  00000+0  10293-3 0  9998
2 20511  82.5190 228.5502 0015270 301.3879  58.5840 14.81632941864654
HST                     
1 20580U 90037B   25042.53715585  .00008742  00000+0  35293-3 0  9991
2 20580  28.4672 175.3183 0002929 126.5999 233.4864 15.22972247713751
SL-16 R/B               
1 20625U 90046B   25042.40818209 -.00000175  00000+0 -65706-4 0  9991
2 20625  70.9988  39.6199 0014460 189.2406 170.8453 14.14933399793047
COSMOS 2084             
1 20663U 90055A   25042.61070341  .00006627  00000+0  48013-3 0  9990
2 20663  62.7891 226.3356 0080498 142.2739 218.4043 15.02299015877497
SL-6 R/B(2)             
1 20666U 90055D   25042.60617069  .00004432  00000+0  35254-3 0  9991
2 20666  62.7849 141.2810 0047215 169.8630 190.3432 15.01024324879432
SL-8 R/B                
1 20775U 90078B   25042.54719022  .00021120  00000+0  75381-3 0  9990
2 20775  82.9069 238.6501 0423297 234.4408 121.6656 14.72398400751406
SL-8 R/B                
1 21088U 91006B   25042.62402515  .00000160  00000+0  14550-3 0  9997
2 21088  82.9404 100.9764 0023560  53.1970  58.2011 13.77424384710239
OKEAN-3                 
1 21397U 91039A   25042.60959839  .00005807  00000+0  44608-3 0  9990
2 21397  82.5209 354.8163 0013468 215.4636 144.5695 15.01517835806283
COSMOS 2151             
1 21422U 91042A   25042.61421087  .00002937  00000+0  24625-3 0  9991
2 21422  82.4963 100.2614 0011096 303.6175  56.3989 14.98028148804604
SL-14 R/B               
1 21423U 91042B   25042.59112274  .00000833  00000+0  10335-3 0  9990
2 21423  82.4907 226.8087 0018577  86.4894 273.8444 14.81347844795168
ERS-1                   
1 21574U 91050A   25042.57692038  .00000639  00000+0  22071-3 0  9999
2 21574  98.7919  45.9364 0031091 282.7314  77.0398 14.39032832759477
ARIANE 40 R/B           
1 21610U 91050F   25042.58517455  .00000657  00000+0  21132-3 0  9997
2 21610  98.2578 103.3092 0003498 160.5209 199.6115 14.42452289762600
INTERCOSMOS 25          
1 21819U 91086A   25042.62278566  .00002712  00000+0  54003-3 0  9996
2 21819  82.6071 186.1704 1494072 239.0013 105.5945 12.10177981449349
SL-8 R/B                
1 21876U 92008B   25042.57031932  .00000072  00000+0  58512-4 0  9999
2 21876  82.9274 198.6166 0035516 145.6168 285.1366 13.75900697655639
SL-8 R/B                
1 21938U 92020B   25042.64765780  .00000053  00000+0  39443-4 0  9996
2 21938  82.9269  84.1924 0027924 311.2059 164.3466 13.75488725647371
USA 81                  
1 21949U 92023A   25042.56941038  .00000396  00000+0  13995-3 0  9997
2 21949  85.0112 357.0546 0001813 110.7540 249.3847 14.32162449 38807
COSMOS 2219             
1 22219U 92076A   25042.53847926  .00000030  00000+0  40346-4 0  9990
2 22219  71.0591 115.6989 0015875  76.8675 283.4218 14.13984109663086
SL-16 R/B               
1 22220U 92076B   25042.44508813 -.00000086  00000+0 -18780-4 0  9991
2 22220  71.0002 292.4740 0014136 322.7641 218.2478 14.16771563666414
COSMOS 2221             
1 22236U 92080A   25042.40637840  .00003339  00000+0  30966-3 0  9993
2 22236  82.5055 293.1947 0016539  67.0774 293.2190 14.94070917722326
SL-16 R/B               
1 22285U 92093B   25042.56941091  .00000299  00000+0  17779-3 0  9993
2 22285  71.0208 105.2835 0005037 210.0681 150.0154 14.15361208657810
COSMOS 2228             
1 22286U 92094A   25042.58621013  .00003811  00000+0  34736-3 0  9991
2 22286  82.5152 251.0824 0018683 174.6664 185.4760 14.94757831717585
SL-16 R/B               
1 22566U 93016B   25042.50093627  .00000353  00000+0  20593-3 0  9997
2 22566  71.0093 316.7481 0011323 209.4990 150.5495 14.15231154646828
COSMOS 2242             
1 22626U 93024A   25042.61909914  .00003147  00000+0  29001-3 0  9997
2 22626  82.5183 280.0767 0016663 175.1401 184.9985 14.94294619721944
SL-16 R/B               
1 22803U 93059B   25042.58668977  .00000297  00000+0  17092-3 0  9999
2 22803  70.9903 115.8346 0014853  85.6272 274.6549 14.17139991624121
ARIANE 40 R/B           
1 22830U 93061H   25042.46701673  .00000467  00000+0  18819-3 0  9997
2 22830  98.5420 112.9850 0010677   7.5272 352.6070 14.32531912638084
COSMOS 2278             
1 23087U 94023A   25042.33761853  .00000006  00000+0  27730-4 0  9995
2 23087  71.0513 273.8072 0011147 266.0354  93.9494 14.14245787589472
SL-16 R/B               
1 23088U 94023B   25042.63824309 -.00000223  00000+0 -90509-4 0  9992
2 23088  71.0001 172.0851 0003845 211.6847 148.4044 14.14939768590770
SL-16 R/B               
1 23343U 94074B   25042.59783187  .00000931  00000+0  13340-3 0  9996
2 23343  97.7572  83.3649 0007889  60.6496  91.9431 14.78797616629437
SL-16 R/B               
1 23405U 94077B   25042.56027102 -.00000133  00000+0 -43537-4 0  9991
2 23405  70.9818  95.3069 0002182 338.1031  21.9998 14.15486561560889
ARIANE 40+ R/B          
1 23561U 95021B   25042.42740777  .00000636  00000+0  21857-3 0  9995
2 23561  98.4982 113.1743 0006067 226.6455 144.5171 14.39366837562958
SL-16 R/B               
1 23705U 95058B   25042.40656391  .00000367  00000+0  21251-3 0  9990
2 23705  71.0207 281.7064 0012817 346.4305  13.6471 14.15424434512482
SL-16 R/B               
1 24298U 96051B   25042.09817023 -.00000167  00000+0 -63569-4 0  9997
2 24298  70.7779 283.8550 0016682 344.6581  15.4030 14.12438810466358
ORBVIEW 2 (SEASTAR)     
1 24883U 97037A   25042.40798692  .00000690  00000+0  25812-3 0  9994
2 24883  98.8044 192.5478 0003024 122.3703 237.7775 14.35077671452340
SL-16 R/B               
1 25400U 98043G   25042.55419589  .00000166  00000+0  88280-4 0  9996
2 25400  98.7741 349.3989 0010911  71.3408 288.8956 14.25918265383248
SL-16 R/B               
1 25407U 98045B   25042.60874334  .00000053  00000+0  51205-4 0  9996
2 25407  71.0109 283.9617 0009836 263.5911  96.4092 14.16110580371735
ISS (ZARYA)             
1 25544U 98067A   25042.51798308  .00016031  00000+0  28803-3 0  9998
2 25544  51.6349 209.4648 0003968 302.4562  57.6043 15.50022971495679
CZ-4B R/B               
1 25732U 99025C   25042.61816388  .00000147  00000+0  92125-4 0  9992
2 25732  98.7193  89.9657 0037640  30.3858 122.5246 14.18137132332730
OKEAN-O                 
1 25860U 99039A   25042.58411787  .00001332  00000+0  18543-3 0  9997
2 25860  98.0024 100.2640 0001592 111.2371 248.9010 14.79448903376540
SL-16 R/B               
1 25861U 99039B   25042.61166270  .00001154  00000+0  15580-3 0  9996
2 25861  98.0553  96.0505 0016330  85.6278 274.6799 14.80979227378964
DELTA 2 R/B             
1 25876U 99041E   25042.39092027  .00003768  00000+0  64959-3 0  9995
2 25876  51.7654  62.2023 0509144 274.9825  79.3194 14.10123502307780
HELIOS 1B               
1 25977U 99064A   25042.62971538  .00002620  00000+0  30742-3 0  9990
2 25977  98.2134 288.0555 0000296 115.5539 244.5706 14.85861354627152
TERRA                   
1 25994U 99068A   25042.53921199  .00000977  00000+0  21076-3 0  9994
2 25994  98.0164 104.6877 0002002   9.4751 121.4325 14.60459479337978
SL-16 R/B               
1 26070U 00006B   25042.59380231  .00000081  00000+0  65297-4 0  9996
2 26070  71.0016 200.1244 0014680  51.9547 308.2898 14.15744601293202
TITAN 4B R/B            
1 26474U 00047B   25042.43497599  .00005406  00000+0  37472-3 0  9997
2 26474  67.9903  57.5784 0040260 123.4878 237.0127 15.05731071333933
ENVISAT                 
1 27386U 02009A   25042.63511396  .00000292  00000+0  10859-3 0  9992
2 27386  98.3180   1.8705 0001319  90.9627  82.0392 14.38837844202935
IDEFIX & ARIANE 42P R/B 
1 27422U 02021B   25042.59466916  .00000600  00000+0  24634-3 0  9998
2 27422  98.5513 341.8354 0010699 258.8508 101.1473 14.30632575188098
AQUA                    
1 27424U 02022A   25042.63208095  .00002118  00000+0  44345-3 0  9995
2 27424  98.3625 359.5541 0002275  79.3445  93.5778 14.60821783211614
CZ-4B R/B               
1 27432U 02024C   25042.56283226  .00000114  00000+0  81824-4 0  9995
2 27432  98.9430  91.6543 0050978  53.6724  71.0550 14.14446104173948
MIDORI II (ADEOS-II)    
1 27597U 02056A   25042.56664221  .00000689  00000+0  29083-3 0  9995
2 27597  98.7233 354.7190 0002101  72.9848 287.1563 14.28869167154436
H-2A R/B                
1 27601U 02056E   25042.50862096  .00000662  00000+0  24853-3 0  9996
2 27601  98.2635  14.1924 0069438 247.4309 223.9085 14.33343932158065
